ORBCOMM FM20 [+]        
1 25416U 98046D   23348.85112840  .00000672  00000+0  28457-3 0  9997
2 25416  44.9951 262.0092 0001758 339.2250  20.8525 14.34687782325202
ORBCOMM FM16 [-]        
1 25417U 98046E   23349.17814731  .00000968  00000+0  38235-3 0  9995
2 25417  44.9947 257.2253 0004469  36.9471 323.1683 14.35469229325356
ORBCOMM FM15 [-]        
1 25418U 98046F   23348.89923713  .00000914  00000+0  36553-3 0  9997
2 25418  44.9981 262.2707 0004011  34.9559 325.1551 14.35222324325105
ORBCOMM FM14 [-]        
1 25419U 98046G   23348.89037154  .00000939  00000+0  37325-3 0  9998
2 25419  44.9972 261.5979 0003117  17.4695  93.7205 14.35341858325289
ORBCOMM FM13 [+]        
1 25420U 98046H   23348.91708447  .00000795  00000+0  32743-3 0  9992
2 25420  44.9985 265.5913 0005310  22.6817 337.4264 14.34752045325262
ORBCOMM FM21 [-]        
1 25475U 98053A   23348.93437524  .00000765  00000+0  31698-3 0  9992
2 25475  45.0106 349.6629 0002402 294.6062  65.4535 14.34751152318482
ORBCOMM FM22 [-]        
1 25476U 98053B   23347.98518019  .00000881  00000+0  35460-3 0  9996
2 25476  45.0102 351.9591 0003886 310.1712  49.8795 14.35155226318009
ORBCOMM FM23 [-]        
1 25477U 98053C   23348.96478769  .00000840  00000+0  34330-3 0  9993
2 25477  45.0107 351.9694 0003238 305.7845  54.2701 14.34744876318615
